1 44293U 19029BL  20001.58334491  .00416195  00000-0  22591-1 0  9999
2 44293  53.0044 252.1874 0001480  89.8874 133.7278 15.12038041 34751
1 44293U 19029BL  20001.91667824 -.00024010  00000-0 -13645-2 0  9999
2 44293  53.0045 250.6775 0001604  84.0492 155.1207 15.12139316 34809
1 44293U 19029BL  20002.41668981  .00058783  00000-0  33623-2 0  9990
2 44293  53.0047 248.4092 0001549  86.6930 355.8999 15.12122398 34877
1 44293U 19029BL  20002.83334491 -.00031695  00000-0 -18082-2 0  9999
2 44293  53.0047 246.5205 0001661  85.8049 106.1825 15.12147891 34947
1 44293U 19029BL  20002.91668981 -.00021273 +00000-0 -12065-2 0  9998
2 44293 053.0045 246.1430 0001676 082.7376 203.2108 15.12139564001783
1 44293U 19029BL  20003.58334491  .00523124  00000-0  28290-1 0  9994
2 44293  53.0047 243.1185 0001654  89.4053 227.6458 15.12024823 35057
1 44293U 19029BL  20003.91667824 -.00019980  00000-0 -11318-2 0  9996
2 44293  53.0049 241.6087 0001750  81.5047 251.1072 15.12143159 35100
1 44293U 19029BL  20004.91667824 -.00019716 +00000-0 -11176-2 0  9996
2 44293 053.0054 237.0746 0001664 079.7075 299.5608 15.12111287001775
1 44293U 19029BL  20005.25001157 -.00031912  00000-0 -18220-2 0  9994
2 44293  53.0056 235.5629 0001610  78.7505 316.0534 15.12124147 35306
1 44293U 19029BL  20005.58334491  .00517191  00000-0  28002-1 0  9994
2 44293  53.0057 234.0503 0001529  89.7240 320.6430 15.12008318 35351
1 44293U 19029BL  20005.75001157  .00171477  00000-0  96247-2 0  9993
2 44293  53.0058 233.2955 0001497  83.0122 155.1145 15.12114413 35385
1 44293U 19029BL  20006.25001157 -.00030961  00000-0 -17651-2 0  9995
2 44293  53.0059 231.0285 0001504  78.3627   3.1457 15.12161882 35452
1 44293U 19029BL  20006.58334491  .00364055  00000-0  19890-1 0  9999
2 44293  53.0059 229.5160 0001421  87.5238   9.5890 15.12073328 35508
1 44293U 19029BL  20006.91668981 -.00005258  00000-0 -28491-3 0  9998
2 44293  53.0059 228.0067 0001423  78.2237  34.4564 15.12113649 35557
1 44293U 19029BL  20007.58334491  .00351443  00000-0  19243-1 0  9999
2 44293  53.0059 224.9825 0001337  87.4417  56.2812 15.12059796 35651
1 44293U 19029BL  20007.91667824 -.00001069  00000-0 -44227-4 0  9996
2 44293  53.0056 223.4729 0001542  80.2687  79.0421 15.12143658 35710
1 44293U 19029BL  20008.91667824 +.00005957 +00000-0 +35872-3 0  9990
2 44293 053.0050 218.9388 0001404 080.9791 125.0879 15.12111242001798
1 44293U 19029BL  20009.25001157  .00049690  00000-0  28490-2 0  9998
2 44293  53.0046 217.4264 0001309  83.8425 137.7721 15.12115542 35914
1 44293U 19029BL  20009.33335648  .00184307  00000-0  10335-1 0  9995
2 44293  53.0046 217.0482 0001307  86.1277 229.4469 15.12079164 35929
1 44293U 19029BL  20009.58334491  .00063379  00000-0  36231-2 0  9996
2 44293  53.0045 215.9146 0001370  92.9180 144.2507 15.12106890 35968
1 44293U 19029BL  20009.91667824 +.00011809 +00000-0 +69383-3 0  9998
2 44293 053.0042 214.4048 0001405 082.5111 170.2174 15.12106159001799
1 44293U 19029BL  20010.25001157  .00116158  00000-0  65786-2 0  9993
2 44293  53.0039 212.8922 0001314  84.6310 183.6470 15.12100258 36060
1 44293U 19029BL  20010.58334491  .00376132  00000-0  20523-1 0  9998
2 44293  53.0036 211.3804 0001349  91.2754 192.5708 15.12057629 36116
1 44293U 19029BL  20010.91667824  .00017709  00000-0  10303-2 0  9992
2 44293  53.0036 209.8706 0001284  82.6705 216.7624 15.12135899 36164
1 44293U 19029BL  20011.25001157  .00210216  00000-0  11731-1 0  9994
2 44293  53.0033 208.3577 0001192  83.5879 231.4373 15.12114631 36213
1 44293U 19029BL  20011.58334491  .00166356  00000-0  93494-2 0  9992
2 44293  53.0033 206.8459 0001387  92.3100 238.2808 15.12095455 36261
1 44293U 19029BL  20011.91668981  .00024032  00000-0  13921-2 0  9994
2 44293  53.0033 205.3361 0001431  83.1163 263.0949 15.12102731 36318
1 44293U 19029BL  20012.25001157  .00261016  00000-0  14475-1 0  9997
2 44293  53.0032 203.8232 0001344  84.1929 277.5089 15.12072058 36369
1 44293U 19029BL  20012.58334491  .00179345  00000-0  10061-1 0  9993
2 44293  53.0033 202.3116 0001406  90.7100 286.5407 15.12090683 36412
1 44293U 19029BL  20012.91668981  .00034161  00000-0  19691-2 0  9999
2 44293  53.0035 200.8017 0001442  81.9952 310.8808 15.12099706 36460
1 44293U 19029BL  20013.91667824  .00037742  00000-0  21726-2 0  9995
2 44293  53.0041 196.2673 0001451  80.4355 359.0470 15.12099697 36610
1 44293U 19029BL  20014.25001157  .00414403  00000-0  22493-1 0  9998
2 44293  53.0043 194.7543 0001297  79.5836  15.4599 15.12048080 36662
1 44293U 19029BL  20014.58334491  .00068741  00000-0  39239-2 0  9991
2 44293  53.0044 193.2429 0001442  87.0780  23.5117 15.12119549 36715
1 44293U 19029BL  20014.89351611 +.00003137 +00000-0 +19691-3 0  9997
2 44293 053.0053 191.8360 0001197 088.4970 271.6158 15.12143564034933
1 44293U 19029BL  20014.91667824  .00044117  00000-0  25344-2 0  9990
2 44293  53.0047 191.7330 0001457  78.9783  47.1837 15.12100838 36767
1 44293U 19029BL  20015.48839297 -.00001881  00000-0 -90891-4 0  9992
2 44293  53.0043 189.1388 0001161 103.9112 256.2008 15.12125127 36855
1 44293U 19029BL  20015.55447567 +.00013706 +00000-0 +80245-3 0  9993
2 44293 053.0045 188.8390 0001399 110.9785 249.1355 15.12102131035038
1 44293U 19029BL  20015.91667824  .00050671  00000-0  29029-2 0  9997
2 44293  53.0051 187.1988 0001313  76.7218  96.1785 15.12135422 36921
1 44293U 19029BL  20016.25001157 +.00248727 +00000-0 +13804-1 0  9990
2 44293 053.0053 185.6857 0001209 079.1214 109.3862 15.12109178001797
1 44293U 19029BL  20016.50001157  .00176136  00000-0  98742-2 0  9997
2 44293  53.0053 184.5520 0001265  87.0525  23.1507 15.12132786 37000
1 44293U 19029BL  20016.58335648 +.00053729 +00000-0 +30750-2 0  9997
2 44293 053.0053 184.1747 0001358 085.0288 119.1385 15.12144180001792
1 44293U 19029BL  20016.75001157 -.00014832  00000-0 -83522-3 0  9991
2 44293  53.0051 183.4199 0001433  81.2006 310.6982 15.12141635 37043
1 44293U 19029BL  20017.25001157 +.00238714 +00000-0 +13280-1 0  9994
2 44293 053.0052 181.1514 0001343 082.1707 153.0894 15.12075895001796
1 44293U 19029BL  20017.58334491 +.00039788 +00000-0 +22867-2 0  9992
2 44293 053.0051 179.6407 0001383 086.7598 164.0582 15.12133083001790
1 44293U 19029BL  20017.91667824  .00035971  00000-0  20711-2 0  9994
2 44293  53.0048 178.1304 0001352  79.4436 186.9538 15.12115470 37223
1 44293U 19029BL  20018.58334491 +.00039603 +00000-0 +22762-2 0  9993
2 44293 053.0046 175.1066 0001329 088.1340 209.3997 15.12133533037328
1 44293U 19029BL  20018.91667824  .00026327  00000-0  15222-2 0  9991
2 44293  53.0041 173.5961 0001279  81.0840 232.0295 15.12120943 37370
1 44293U 19029BL  20019.25001157 +.00323226 +00000-0 +17772-1 0  9999
2 44293 053.0040 172.0829 0001278 087.8414 240.8568 15.12055957001795
1 44293U 19029BL  20019.58334491  .00034315  00000-0  19759-2 0  9991
2 44293  53.0039 170.5725 0001285  89.3765 254.8769 15.12135001 37476
1 44293U 19029BL  20019.91667824  .00017930  00000-0  10432-2 0  9990
2 44293  53.0034 169.0617 0001230  82.4622 277.3690 15.12125062 37525
1 44293U 19029BL  20020.58334491 +.00042159 +00000-0 +24211-2 0  9997
2 44293 053.0032 166.0383 0001260 089.6572 301.3159 15.12133465001802
1 44293U 19029BL  20020.91667824  .00040620  00000-0  23346-2 0  9992
2 44293  53.0028 164.5273 0001204  82.4964 324.0525 15.12122108 37677
1 44293U 19029BL  20021.25001157  .00684625  00000-0  36789-1 0  9994
2 44293  53.0027 163.0141 0001194  85.4059 336.7373 15.11994390 37726
1 44293U 19029BL  20021.58334491  .00108204  00000-0  61328-2 0  9992
2 44293  53.0028 161.5040 0001239  87.8670 349.8273 15.12119576 37778
1 44293U 19029BL  20021.91667824  .00006144  00000-0  36922-3 0  9991
2 44293  53.0027 159.9928 0001184  81.7257  11.5404 15.12132319 37821
1 44293U 19029BL  20022.25001157  .00506838  00000-0  27461-1 0  9991
2 44293  53.0027 158.4797 0001134  85.0237  23.8356 15.12027211 37870
1 44293U 19029BL  20022.58334491  .00096193  00000-0  54661-2 0  9998
2 44293  53.0028 156.9696 0001323  84.7488  39.6680 15.12100034 37922
1 44293U 19029BL  20022.91667824 -.00001397  00000-0 -63082-4 0  9997
2 44293  53.0030 155.4584 0001301  80.7664  59.1882 15.12110381 37975
1 44293U 19029BL  20023.25001157  .00685749  00000-0  36868-1 0  9992
2 44293  53.0030 153.9454 0001255  77.2803  78.2345 15.11972140 38030
1 44293U 19029BL  20023.50001157  .00157479  00000-0  88642-2 0  9992
2 44293  53.0034 152.8128 0001353  85.1839 351.9663 15.12088243 38066
1 44293U 19029BL  20023.58334491  .00022683  00000-0  13150-2 0  9990
2 44293  53.0033 152.4355 0001354  82.9460  88.0920 15.12108514 38089
1 44293U 19029BL  20024.58334491 -.00020581  00000-0 -11662-2 0  9994
2 44293  53.0040 147.9014 0001474  81.8835 135.8223 15.12152178 38234
1 44293U 19029BL  20025.25001157  .00514890  00000-0  27860-1 0  9994
2 44293  53.0044 144.8770 0001513  79.0753 169.8306 15.12040935 38332
1 44293U 19029BL  20025.58335648 -.00015278  00000-0 -86131-3 0  9991
2 44293  53.0046 143.3672 0001329  79.0160 185.5179 15.12126624 38384
1 44293U 19029BL  20026.25001157  .00142967  00000-0  80661-2 0  9996
2 44293  53.0050 140.3431 0001267  85.2213 210.3729 15.12084712 38488
1 44293U 19029BL  20026.41667824  .00145537  00000-0  82029-2 0  9999
2 44293  53.0051 139.5881 0001269  82.1861  41.1780 15.12106330 38506
1 44293U 19029BL  20026.91667824 -.00034684  00000-0 -19814-2 0  9998
2 44293  53.0049 137.3217 0001214  76.1898 250.5164 15.12144922 38584
1 44293U 19029BL  20027.25001157  .00416016  00000-0  22583-1 0  9994
2 44293  53.0050 135.8091 0001291  83.2216 259.0677 15.12035788 38635
1 44293U 19029BL  20027.58334491 -.00014950  00000-0 -84228-3 0  9999
2 44293  53.0050 134.2995 0001233  76.7427 281.1028 15.12132799 38689
1 44293U 19029BL  20027.91667824 -.00038206 +00000-0 -21852-2 0  9998
2 44293 053.0047 132.7876 0001150 076.3285 297.0789 15.12148694001807
1 44293U 19029BL  20028.25001157  .00354156  00000-0  19386-1 0  9998
2 44293  53.0048 131.2752 0001194  84.6563 304.3360 15.12055724 38789
